STARLINK-32588          
1 61866U 24202X   26068.48766438 -.00001137  00000+0 -31816-4 0  9991
2 61866  42.9971 239.3906 0000912 247.8575 112.2180 15.27569638 75305
KUIPER-00226            
1 67785U 26030X   26068.62629313  .00046834  00000+0  15530-2 0  9998
2 67785  51.8814 220.1252 0017713  64.2781 296.0030 15.30655594  5078
