[{"OBJECT_NAME":"STARLINK-32588","OBJECT_ID":"2024-202X","EPOCH":"2026-03-09T11:42:14.202432","MEAN_MOTION":15.27569638,"ECCENTRICITY":9.127e-5,"INCLINATION":42.9971,"RA_OF_ASC_NODE":239.3906,"ARG_OF_PERICENTER":247.8575,"MEAN_ANOMALY":112.218,"EPHEMERIS_TYPE":0,"CLASSIFICATION_TYPE":"U","NORAD_CAT_ID":61866,"ELEMENT_SET_NO":999,"REV_AT_EPOCH":7530,"BSTAR":-3.1815962e-5,"MEAN_MOTION_DOT":-1.137e-5,"MEAN_MOTION_DDOT":0},{"OBJECT_NAME":"KUIPER-00226","OBJECT_ID":"2026-030X","EPOCH":"2026-03-09T15:01:51.726432","MEAN_MOTION":15.30655594,"ECCENTRICITY":0.0017713,"INCLINATION":51.8814,"RA_OF_ASC_NODE":220.1252,"ARG_OF_PERICENTER":64.2781,"MEAN_ANOMALY":296.003,"EPHEMERIS_TYPE":0,"CLASSIFICATION_TYPE":"U","NORAD_CAT_ID":67785,"ELEMENT_SET_NO":999,"REV_AT_EPOCH":507,"BSTAR":0.001553,"MEAN_MOTION_DOT":0.00046834,"MEAN_MOTION_DDOT":0}]
